start=new Date('2022-05-31T00:00:00.000Z').valueOf();
sats=[{"MEAN_MOTION":"15.06397235","SEMIMAJOR_AXIS":"6925.357","ARG_OF_PERICENTER":"50.5398","CENTER_NAME":"EARTH","FILE":"3472994","MEAN_MOTION_DOT":"-0.00001220","DECAY_DATE":null,"REV_AT_EPOCH":"7240","REF_FRAME":"TEME","GP_ID":"204977763","OBJECT_NAME":"STARLINK-2066","OBJECT_ID":"2021-012BF","TLE_LINE2":"2 47673  53.0560 122.3923 0001980  50.5398 309.5765 15.06397235 72407","BSTAR":"-0.00006299700000","SITE":"AFETR","CLASSIFICATION_TYPE":"U","PERIAPSIS":"545.851","TLE_LINE1":"1 47673U 21012BF  22150.64715629 -.00001220  00000-0 -62997-4 0  9997","EPHEMERIS_TYPE":"0","RCS_SIZE":"LARGE","OBJECT_TYPE":"PAYLOAD","LAUNCH_DATE":"2021-02-16","ELEMENT_SET_NO":"999","MEAN_ANOMALY":"309.5765","INCLINATION":"53.0560","COUNTRY_CODE":"US","TIME_SYSTEM":"UTC","APOAPSIS":"548.593","MEAN_ELEMENT_THEORY":"SGP4","MEAN_MOTION_DDOT":"0.0000000000000","ECCENTRICITY":"0.00019800","NORAD_CAT_ID":"47673","RA_OF_ASC_NODE":"122.3923","PERIOD":"95.592","EPOCH":"2022-05-30T15:31:54.303456"},{"ECCENTRICITY":"0.00017490","NORAD_CAT_ID":"47674","RA_OF_ASC_NODE":"123.7937","MEAN_ELEMENT_THEORY":"SGP4","MEAN_MOTION_DDOT":"0.0000000000000","PERIOD":"95.593","EPOCH":"2022-05-30T07:55:26.675040","CLASSIFICATION_TYPE":"U","SITE":"AFETR","PERIAPSIS":"546.033","TLE_LINE1":"1 47674U 21012BG  22150.33016985 -.00001349  00000-0 -71692-4 0  9997","LAUNCH_DATE":"2021-02-16","OBJECT_TYPE":"PAYLOAD","MEAN_ANOMALY":"306.2292","ELEMENT_SET_NO":"999","INCLINATION":"53.0548","COUNTRY_CODE":"US","APOAPSIS":"548.455","TIME_SYSTEM":"UTC","EPHEMERIS_TYPE":"0","RCS_SIZE":"LARGE","REF_FRAME":"TEME","GP_ID":"204941794","MEAN_MOTION_DOT":"-0.00001349","DECAY_DATE":null,"REV_AT_EPOCH":"7236","BSTAR":"-0.00007169200000","TLE_LINE2":"2 47674  53.0548 123.7937 0001749  53.8859 306.2292 15.06390020 72364","OBJECT_NAME":"STARLINK-2067","OBJECT_ID":"2021-012BG","ARG_OF_PERICENTER":"53.8859","MEAN_MOTION":"15.06390020","SEMIMAJOR_AXIS":"6925.379","FILE":"3472495","CENTER_NAME":"EARTH"},{"RCS_SIZE":"LARGE","EPHEMERIS_TYPE":"0","COUNTRY_CODE":"US","INCLINATION":"53.0541","APOAPSIS":"548.559","TIME_SYSTEM":"UTC","LAUNCH_DATE":"2021-02-16","OBJECT_TYPE":"PAYLOAD","ELEMENT_SET_NO":"999","MEAN_ANOMALY":"313.0003","PERIAPSIS":"545.937","TLE_LINE1":"1 47675U 21012BH  22150.65453908 -.00001201  00000-0 -61745-4 0  9998","SITE":"AFETR","CLASSIFICATION_TYPE":"U","PERIOD":"95.593","EPOCH":"2022-05-30T15:42:32.176512","MEAN_ELEMENT_THEORY":"SGP4","MEAN_MOTION_DDOT":"0.0000000000000","NORAD_CAT_ID":"47675","RA_OF_ASC_NODE":"122.3511","ECCENTRICITY":"0.00018930","CENTER_NAME":"EARTH","FILE":"3472994","SEMIMAJOR_AXIS":"6925.383","MEAN_MOTION":"15.06388903","ARG_OF_PERICENTER":"47.1144","OBJECT_ID":"2021-012BH","OBJECT_NAME":"STARLINK-2078","TLE_LINE2":"2 47675  53.0541 122.3511 0001893  47.1144 313.0003 15.06388903 72413","BSTAR":"-0.00006174500000","DECAY_DATE":null,"REV_AT_EPOCH":"7241","MEAN_MOTION_DOT":"-0.00001201","GP_ID":"204977265","REF_FRAME":"TEME"},{"OBJECT_TYPE":"PAYLOAD","LAUNCH_DATE":"2021-02-16","MEAN_ANOMALY":"38.4449","ELEMENT_SET_NO":"999","INCLINATION":"53.0530","COUNTRY_CODE":"US","APOAPSIS":"548.534","TIME_SYSTEM":"UTC","EPHEMERIS_TYPE":"0","RCS_SIZE":"LARGE","SITE":"AFETR","CLASSIFICATION_TYPE":"U","PERIAPSIS":"546.060","TLE_LINE1":"1 47676U 21012BJ  22151.00001157  .00035509  00000-0  23925-2 0  9996","PERIOD":"95.594","EPOCH":"2022-05-31T00:00:00.999648","ECCENTRICITY":"0.00017860","NORAD_CAT_ID":"47676","RA_OF_ASC_NODE":"10.8147","MEAN_MOTION_DDOT":"0.0000000000000","MEAN_ELEMENT_THEORY":"SGP4","FILE":"3472994","CENTER_NAME":"EARTH","ARG_OF_PERICENTER":"61.1942","MEAN_MOTION":"15.06372886","SEMIMAJOR_AXIS":"6925.432","BSTAR":"0.00239250000000","TLE_LINE2":"2 47676  53.0530  10.8147 0001786  61.1942  38.4449 15.06372886  1306","OBJECT_NAME":"STARLINK-2083","OBJECT_ID":"2021-012BJ","GP_ID":"204977015","REF_FRAME":"TEME","MEAN_MOTION_DOT":"0.00035509","DECAY_DATE":null,"REV_AT_EPOCH":"130"},{"ARG_OF_PERICENTER":"46.7099","SEMIMAJOR_AXIS":"6925.365","MEAN_MOTION":"15.06394693","FILE":"3472994","CENTER_NAME":"EARTH","REF_FRAME":"TEME","GP_ID":"204978263","REV_AT_EPOCH":"7213","DECAY_DATE":null,"MEAN_MOTION_DOT":"0.00001220","TLE_LINE2":"2 47677  53.0537 142.1199 0001997  46.7099 313.4056 15.06394693 72135","BSTAR":"0.00010084000000","OBJECT_ID":"2021-012BK","OBJECT_NAME":"STARLINK-2090","TLE_LINE1":"1 47677U 21012BK  22150.70798959  .00001220  00000-0  10084-3 0  9992","PERIAPSIS":"545.847","CLASSIFICATION_TYPE":"U","SITE":"AFETR","APOAPSIS":"548.613","TIME_SYSTEM":"UTC","INCLINATION":"53.0537","COUNTRY_CODE":"US","MEAN_ANOMALY":"313.4056","ELEMENT_SET_NO":"999","LAUNCH_DATE":"2021-02-16","OBJECT_TYPE":"PAYLOAD","RCS_SIZE":"LARGE","EPHEMERIS_TYPE":"0","RA_OF_ASC_NODE":"142.1199","NORAD_CAT_ID":"47677","ECCENTRICITY":"0.00019970","MEAN_ELEMENT_THEORY":"SGP4","MEAN_MOTION_DDOT":"0.0000000000000","EPOCH":"2022-05-30T16:59:30.300576","PERIOD":"95.592"},{"REF_FRAME":"TEME","GP_ID":"204978513","MEAN_MOTION_DOT":"-0.00002448","REV_AT_EPOCH":"7214","DECAY_DATE":null,"TLE_LINE2":"2 47679  53.0540 142.2914 0001767  58.2027 301.9134 15.06386761 72148","BSTAR":"-0.00014551000000","OBJECT_NAME":"STARLINK-2095","OBJECT_ID":"2021-012BM","ARG_OF_PERICENTER":"58.2027","MEAN_MOTION":"15.06386761","SEMIMAJOR_AXIS":"6925.389","FILE":"3472994","CENTER_NAME":"EARTH","ECCENTRICITY":"0.00017670","RA_OF_ASC_NODE":"142.2914","NORAD_CAT_ID":"47679","MEAN_ELEMENT_THEORY":"SGP4","MEAN_MOTION_DDOT":"0.0000000000000","EPOCH":"2022-05-30T16:05:03.444864","PERIOD":"95.593","CLASSIFICATION_TYPE":"U","SITE":"AFETR","TLE_LINE1":"1 47679U 21012BM  22150.67017876 -.00002448  00000-0 -14551-3 0  9990","PERIAPSIS":"546.030","MEAN_ANOMALY":"301.9134","ELEMENT_SET_NO":"999","OBJECT_TYPE":"PAYLOAD","LAUNCH_DATE":"2021-02-16","TIME_SYSTEM":"UTC","APOAPSIS":"548.478","INCLINATION":"53.0540","COUNTRY_CODE":"US","EPHEMERIS_TYPE":"0","RCS_SIZE":"LARGE"},{"MEAN_MOTION_DOT":"-0.00092493","DECAY_DATE":null,"REV_AT_EPOCH":"7015","GP_ID":"204977270","REF_FRAME":"TEME","OBJECT_NAME":"STARLINK-2068","OBJECT_ID":"2021-017A","TLE_LINE2":"2 47722  53.0531 266.9037 0004303  97.3581 262.7897 15.05493749 70158","BSTAR":"-0.00642550000000","MEAN_MOTION":"15.05493749","SEMIMAJOR_AXIS":"6928.127","ARG_OF_PERICENTER":"97.3581","CENTER_NAME":"EARTH","FILE":"3472994","MEAN_MOTION_DDOT":"0.0000000000000","MEAN_ELEMENT_THEORY":"SGP4","ECCENTRICITY":"0.00043030","NORAD_CAT_ID":"47722","RA_OF_ASC_NODE":"266.9037","PERIOD":"95.650","EPOCH":"2022-05-30T18:10:25.718304","CLASSIFICATION_TYPE":"U","SITE":"AFETR","PERIAPSIS":"547.011","TLE_LINE1":"1 47722U 21017A   22150.75724211 -.00092493  00000-0 -64255-2 0  9995","EPHEMERIS_TYPE":"0","RCS_SIZE":"LARGE","LAUNCH_DATE":"2021-03-04","OBJECT_TYPE":"PAYLOAD","ELEMENT_SET_NO":"999","MEAN_ANOMALY":"262.7897","COUNTRY_CODE":"US","INCLINATION":"53.0531","TIME_SYSTEM":"UTC","APOAPSIS":"552.974"},{"ECCENTRICITY":"0.00014290","RA_OF_ASC_NODE":"201.4651","NORAD_CAT_ID":"47723","MEAN_ELEMENT_THEORY":"SGP4","MEAN_MOTION_DDOT":"0.0000000000000","EPOCH":"2022-05-30T20:29:09.623904","PERIOD":"95.593","CLASSIFICATION_TYPE":"U","SITE":"AFETR","TLE_LINE1":"1 47723U 21017B   22150.85358361 -.00000724  00000-0 -29695-4 0  9993","PERIAPSIS":"546.252","ELEMENT_SET_NO":"999","MEAN_ANOMALY":"299.3562","LAUNCH_DATE":"2021-03-04","OBJECT_TYPE":"PAYLOAD","TIME_SYSTEM":"UTC","APOAPSIS":"548.232","INCLINATION":"53.0524","COUNTRY_CODE":"US","EPHEMERIS_TYPE":"0","RCS_SIZE":"LARGE","REF_FRAME":"TEME","GP_ID":"204949041","MEAN_MOTION_DOT":"-0.00000724","REV_AT_EPOCH":"7039","DECAY_DATE":null,"BSTAR":"-0.00002969500000","TLE_LINE2":"2 47723  53.0524 201.4651 0001429  60.7570 299.3562 15.06390756 70391","OBJECT_NAME":"STARLINK-2107","OBJECT_ID":"2021-017B","ARG_OF_PERICENTER":"60.7570","MEAN_MOTION":"15.06390756","SEMIMAJOR_AXIS":"6925.377","FILE":"3472659","CENTER_NAME":"EARTH"},{"SITE":"AFETR","CLASSIFICATION_TYPE":"U","TLE_LINE1":"1 47724U 21017C   22150.62505838 -.00002787  00000-0 -16834-3 0  9993","PERIAPSIS":"546.116","MEAN_ANOMALY":"285.7445","ELEMENT_SET_NO":"999","OBJECT_TYPE":"PAYLOAD","LAUNCH_DATE":"2021-03-04","APOAPSIS":"548.393","TIME_SYSTEM":"UTC","COUNTRY_CODE":"US","INCLINATION":"53.0535","EPHEMERIS_TYPE":"0","RCS_SIZE":"LARGE","ECCENTRICITY":"0.00016440","RA_OF_ASC_NODE":"202.4864","NORAD_CAT_ID":"47724","MEAN_ELEMENT_THEORY":"SGP4","MEAN_MOTION_DDOT":"0.0000000000000","EPOCH":"2022-05-30T15:00:05.044032","PERIOD":"95.593","ARG_OF_PERICENTER":"74.3726","MEAN_MOTION":"15.06386760","SEMIMAJOR_AXIS":"6925.389","FILE":"3472994","CENTER_NAME":"EARTH","REF_FRAME":"TEME","GP_ID":"204978268","MEAN_MOTION_DOT":"-0.00002787","REV_AT_EPOCH":"7097","DECAY_DATE":null,"TLE_LINE2":"2 47724  53.0535 202.4864 0001644  74.3726 285.7445 15.06386760 70977","BSTAR":"-0.00016834000000","OBJECT_NAME":"STARLINK-2116","OBJECT_ID":"2021-017C"},{"CENTER_NAME":"EARTH","FILE":"3472994","SEMIMAJOR_AXIS":"6925.392","MEAN_MOTION":"15.06385841","ARG_OF_PERICENTER":"59.8600","OBJECT_ID":"2021-017D","OBJECT_NAME":"STARLINK-2125","BSTAR":"-0.00018814000000","TLE_LINE2":"2 47725  53.0548 272.0423 0001757  59.8600 300.2563 15.06385841 70029","REV_AT_EPOCH":"7002","DECAY_DATE":null,"MEAN_MOTION_DOT":"-0.00003082","GP_ID":"204978518","REF_FRAME":"TEME","RCS_SIZE":"LARGE","EPHEMERIS_TYPE":"0","APOAPSIS":"548.474","TIME_SYSTEM":"UTC","COUNTRY_CODE":"US","INCLINATION":"53.0548","MEAN_ANOMALY":"300.2563","ELEMENT_SET_NO":"999","LAUNCH_DATE":"2021-03-04","OBJECT_TYPE":"PAYLOAD","TLE_LINE1":"1 47725U 21017D   22150.72550433 -.00003082  00000-0 -18814-3 0  9995","PERIAPSIS":"546.040","SITE":"AFETR","CLASSIFICATION_TYPE":"U","EPOCH":"2022-05-30T17:24:43.574112","PERIOD":"95.593","MEAN_ELEMENT_THEORY":"SGP4","MEAN_MOTION_DDOT":"0.0000000000000","RA_OF_ASC_NODE":"272.0423","NORAD_CAT_ID":"47725","ECCENTRICITY":"0.00017570"}];
